start=new Date('2022-06-14T00:00:00.000Z').valueOf();
sats=[{"MEAN_ELEMENT_THEORY":"SGP4","GP_ID":"206060896","BSTAR":"0.00009204400000","CENTER_NAME":"EARTH","MEAN_MOTION":"15.08842350","ARG_OF_PERICENTER":"45.0168","REV_AT_EPOCH":"2264","CLASSIFICATION_TYPE":"U","ECCENTRICITY":"0.00020280","PERIAPSIS":"538.335","MEAN_ANOMALY":"315.0988","TLE_LINE1":"1 51137U 22005AK  22164.50863263  .00001177  00000-0  92044-4 0  9993","RCS_SIZE":"LARGE","EPOCH":"2022-06-13T12:12:25.859232","RA_OF_ASC_NODE":"307.6496","APOAPSIS":"541.141","OBJECT_NAME":"STARLINK-3180","COUNTRY_CODE":"US","ELEMENT_SET_NO":"999","TLE_LINE2":"2 51137  53.2190 307.6496 0002028  45.0168 315.0988 15.08842350 22644","OBJECT_TYPE":"PAYLOAD","DECAY_DATE":null,"REF_FRAME":"TEME","EPHEMERIS_TYPE":"0","SITE":"AFETR","PERIOD":"95.437","MEAN_MOTION_DOT":"0.00001177","TIME_SYSTEM":"UTC","LAUNCH_DATE":"2022-01-19","MEAN_MOTION_DDOT":"0.0000000000000","OBJECT_ID":"2022-005AK","INCLINATION":"53.2190","SEMIMAJOR_AXIS":"6917.873","FILE":"3494620","NORAD_CAT_ID":"51137"},{"MEAN_MOTION":"15.08850769","CENTER_NAME":"EARTH","BSTAR":"0.00006060600000","MEAN_ELEMENT_THEORY":"SGP4","GP_ID":"206068194","REV_AT_EPOCH":"2379","ARG_OF_PERICENTER":"57.5496","MEAN_ANOMALY":"302.5656","PERIAPSIS":"538.565","ECCENTRICITY":"0.00016590","CLASSIFICATION_TYPE":"U","OBJECT_NAME":"STARLINK-3177","APOAPSIS":"540.860","RA_OF_ASC_NODE":"306.4296","EPOCH":"2022-06-13T18:44:33.978048","TLE_LINE1":"1 51138U 22005AL  22164.78094882  .00000677  00000-0  60606-4 0  9990","RCS_SIZE":"LARGE","TLE_LINE2":"2 51138  53.2149 306.4296 0001659  57.5496 302.5656 15.08850769 23798","OBJECT_TYPE":"PAYLOAD","ELEMENT_SET_NO":"999","COUNTRY_CODE":"US","SITE":"AFETR","EPHEMERIS_TYPE":"0","REF_FRAME":"TEME","DECAY_DATE":null,"LAUNCH_DATE":"2022-01-19","TIME_SYSTEM":"UTC","MEAN_MOTION_DOT":"0.00000677","PERIOD":"95.437","FILE":"3494899","NORAD_CAT_ID":"51138","SEMIMAJOR_AXIS":"6917.847","OBJECT_ID":"2022-005AL","INCLINATION":"53.2149","MEAN_MOTION_DDOT":"0.0000000000000"},{"REV_AT_EPOCH":"2264","ARG_OF_PERICENTER":"55.2247","GP_ID":"206061898","MEAN_ELEMENT_THEORY":"SGP4","BSTAR":"0.00013199000000","CENTER_NAME":"EARTH","MEAN_MOTION":"15.08837188","EPOCH":"2022-06-13T12:01:50.190240","TLE_LINE1":"1 51139U 22005AM  22164.50127535  .00001813  00000-0  13199-3 0  9990","RCS_SIZE":"LARGE","RA_OF_ASC_NODE":"307.6805","APOAPSIS":"541.022","OBJECT_NAME":"STARLINK-3172","CLASSIFICATION_TYPE":"U","ECCENTRICITY":"0.00018330","PERIAPSIS":"538.486","MEAN_ANOMALY":"304.8918","DECAY_DATE":null,"REF_FRAME":"TEME","SITE":"AFETR","EPHEMERIS_TYPE":"0","COUNTRY_CODE":"US","OBJECT_TYPE":"PAYLOAD","TLE_LINE2":"2 51139  53.2192 307.6805 0001833  55.2247 304.8918 15.08837188 22648","ELEMENT_SET_NO":"999","OBJECT_ID":"2022-005AM","INCLINATION":"53.2192","MEAN_MOTION_DDOT":"0.0000000000000","NORAD_CAT_ID":"51139","FILE":"3494620","SEMIMAJOR_AXIS":"6917.889","PERIOD":"95.438","TIME_SYSTEM":"UTC","MEAN_MOTION_DOT":"0.00001813","LAUNCH_DATE":"2022-01-19"},{"CLASSIFICATION_TYPE":"U","ECCENTRICITY":"0.00020830","MEAN_ANOMALY":"306.5367","PERIAPSIS":"538.283","EPOCH":"2022-06-13T12:17:44.406528","TLE_LINE1":"1 51140U 22005AN  22164.51231952  .00003251  00000-0  22220-3 0  9995","RCS_SIZE":"LARGE","RA_OF_ASC_NODE":"307.6410","APOAPSIS":"541.165","OBJECT_NAME":"STARLINK-3175","GP_ID":"206061649","MEAN_ELEMENT_THEORY":"SGP4","BSTAR":"0.00022220000000","CENTER_NAME":"EARTH","MEAN_MOTION":"15.08846894","REV_AT_EPOCH":"2264","ARG_OF_PERICENTER":"53.5817","PERIOD":"95.437","TIME_SYSTEM":"UTC","MEAN_MOTION_DOT":"0.00003251","LAUNCH_DATE":"2022-01-19","INCLINATION":"53.2177","OBJECT_ID":"2022-005AN","MEAN_MOTION_DDOT":"0.0000000000000","NORAD_CAT_ID":"51140","FILE":"3494620","SEMIMAJOR_AXIS":"6917.859","COUNTRY_CODE":"US","OBJECT_TYPE":"PAYLOAD","TLE_LINE2":"2 51140  53.2177 307.6410 0002083  53.5817 306.5367 15.08846894 22648","ELEMENT_SET_NO":"999","DECAY_DATE":null,"REF_FRAME":"TEME","SITE":"AFETR","EPHEMERIS_TYPE":"0"},{"BSTAR":"0.00026175000000","MEAN_ELEMENT_THEORY":"SGP4","GP_ID":"206068195","MEAN_MOTION":"15.08856091","CENTER_NAME":"EARTH","REV_AT_EPOCH":"2379","ARG_OF_PERICENTER":"50.8781","ECCENTRICITY":"0.00018120","CLASSIFICATION_TYPE":"U","MEAN_ANOMALY":"309.2372","PERIAPSIS":"538.443","RA_OF_ASC_NODE":"306.5260","EPOCH":"2022-06-13T18:12:46.205568","TLE_LINE1":"1 51141U 22005AP  22164.75886812  .00003882  00000-0  26175-3 0  9996","RCS_SIZE":"LARGE","OBJECT_NAME":"STARLINK-3179","APOAPSIS":"540.950","COUNTRY_CODE":"US","TLE_LINE2":"2 51141  53.2192 306.5260 0001812  50.8781 309.2372 15.08856091 23799","OBJECT_TYPE":"PAYLOAD","ELEMENT_SET_NO":"999","REF_FRAME":"TEME","DECAY_DATE":null,"SITE":"AFETR","EPHEMERIS_TYPE":"0","TIME_SYSTEM":"UTC","MEAN_MOTION_DOT":"0.00003882","PERIOD":"95.437","LAUNCH_DATE":"2022-01-19","INCLINATION":"53.2192","OBJECT_ID":"2022-005AP","MEAN_MOTION_DDOT":"0.0000000000000","FILE":"3494899","NORAD_CAT_ID":"51141","SEMIMAJOR_AXIS":"6917.831"},{"BSTAR":"-0.00019348000000","GP_ID":"206068187","MEAN_ELEMENT_THEORY":"SGP4","MEAN_MOTION":"15.08855090","CENTER_NAME":"EARTH","REV_AT_EPOCH":"2399","ARG_OF_PERICENTER":"37.0270","ECCENTRICITY":"0.00018620","CLASSIFICATION_TYPE":"U","MEAN_ANOMALY":"130.4925","PERIAPSIS":"538.411","RA_OF_ASC_NODE":"295.8115","TLE_LINE1":"1 51142U 22005AQ  22164.91667824 -.00003367  00000-0 -19348-3 0  9999","RCS_SIZE":"LARGE","EPOCH":"2022-06-13T22:00:00.999936","OBJECT_NAME":"STARLINK-3369","APOAPSIS":"540.987","COUNTRY_CODE":"US","ELEMENT_SET_NO":"999","TLE_LINE2":"2 51142  53.2198 295.8115 0001862  37.0270 130.4925 15.08855090 23998","OBJECT_TYPE":"PAYLOAD","REF_FRAME":"TEME","DECAY_DATE":null,"EPHEMERIS_TYPE":"0","SITE":"AFETR","MEAN_MOTION_DOT":"-0.00003367","TIME_SYSTEM":"UTC","PERIOD":"95.437","LAUNCH_DATE":"2022-01-19","MEAN_MOTION_DDOT":"0.0000000000000","OBJECT_ID":"2022-005AQ","INCLINATION":"53.2198","SEMIMAJOR_AXIS":"6917.834","NORAD_CAT_ID":"51142","FILE":"3494899"},{"OBJECT_NAME":"STARLINK-3184","APOAPSIS":"541.259","RA_OF_ASC_NODE":"317.5068","EPOCH":"2022-06-13T13:04:06.150432","RCS_SIZE":"LARGE","TLE_LINE1":"1 51143U 22005AR  22164.54451563 -.00000175  00000-0  71255-5 0  9990","PERIAPSIS":"538.255","MEAN_ANOMALY":"321.0147","ECCENTRICITY":"0.00021710","CLASSIFICATION_TYPE":"U","REV_AT_EPOCH":"2250","ARG_OF_PERICENTER":"39.1002","MEAN_MOTION":"15.08836173","CENTER_NAME":"EARTH","BSTAR":"0.00000712550000","GP_ID":"206061399","MEAN_ELEMENT_THEORY":"SGP4","NORAD_CAT_ID":"51143","FILE":"3494620","SEMIMAJOR_AXIS":"6917.892","INCLINATION":"53.2181","OBJECT_ID":"2022-005AR","MEAN_MOTION_DDOT":"0.0000000000000","LAUNCH_DATE":"2022-01-19","TIME_SYSTEM":"UTC","MEAN_MOTION_DOT":"-0.00000175","PERIOD":"95.438","SITE":"AFETR","EPHEMERIS_TYPE":"0","REF_FRAME":"TEME","DECAY_DATE":null,"TLE_LINE2":"2 51143  53.2181 317.5068 0002171  39.1002 321.0147 15.08836173 22501","OBJECT_TYPE":"PAYLOAD","ELEMENT_SET_NO":"999","COUNTRY_CODE":"US"},{"PERIOD":"95.438","MEAN_MOTION_DOT":"-0.00000299","TIME_SYSTEM":"UTC","LAUNCH_DATE":"2022-01-19","MEAN_MOTION_DDOT":"0.0000000000000","INCLINATION":"53.2191","OBJECT_ID":"2022-005AS","SEMIMAJOR_AXIS":"6917.888","NORAD_CAT_ID":"51144","FILE":"3494620","COUNTRY_CODE":"US","ELEMENT_SET_NO":"999","TLE_LINE2":"2 51144  53.2191 307.6975 0001548  53.6686 306.4449 15.08837663 22648","OBJECT_TYPE":"PAYLOAD","DECAY_DATE":null,"REF_FRAME":"TEME","EPHEMERIS_TYPE":"0","SITE":"AFETR","CLASSIFICATION_TYPE":"U","ECCENTRICITY":"0.00015480","MEAN_ANOMALY":"306.4449","PERIAPSIS":"538.682","TLE_LINE1":"1 51144U 22005AS  22164.49759499 -.00000299  00000-0 -69667-6 0  9997","RCS_SIZE":"LARGE","EPOCH":"2022-06-13T11:56:32.207136","RA_OF_ASC_NODE":"307.6975","APOAPSIS":"540.823","OBJECT_NAME":"STARLINK-3185","MEAN_ELEMENT_THEORY":"SGP4","GP_ID":"206062149","BSTAR":"-0.00000069667000","CENTER_NAME":"EARTH","MEAN_MOTION":"15.08837663","ARG_OF_PERICENTER":"53.6686","REV_AT_EPOCH":"2264"},{"LAUNCH_DATE":"2022-01-19","PERIOD":"95.438","MEAN_MOTION_DOT":"0.00000059","TIME_SYSTEM":"UTC","SEMIMAJOR_AXIS":"6917.885","NORAD_CAT_ID":"51145","FILE":"3494620","MEAN_MOTION_DDOT":"0.0000000000000","OBJECT_ID":"2022-005AT","INCLINATION":"53.2165","ELEMENT_SET_NO":"999","TLE_LINE2":"2 51145  53.2165 317.5238 0002479  33.7799 326.3351 15.08838551 22505","OBJECT_TYPE":"PAYLOAD","COUNTRY_CODE":"US","EPHEMERIS_TYPE":"0","SITE":"AFETR","DECAY_DATE":null,"REF_FRAME":"TEME","MEAN_ANOMALY":"326.3351","PERIAPSIS":"538.035","CLASSIFICATION_TYPE":"U","ECCENTRICITY":"0.00024790","APOAPSIS":"541.465","OBJECT_NAME":"STARLINK-3365","TLE_LINE1":"1 51145U 22005AT  22164.54083240  .00000059  00000-0  21799-4 0  9992","RCS_SIZE":"LARGE","EPOCH":"2022-06-13T12:58:47.919360","RA_OF_ASC_NODE":"317.5238","CENTER_NAME":"EARTH","MEAN_MOTION":"15.08838551","GP_ID":"206060897","MEAN_ELEMENT_THEORY":"SGP4","BSTAR":"0.00002179900000","REV_AT_EPOCH":"2250","ARG_OF_PERICENTER":"33.7799"},{"BSTAR":"0.00010938000000","MEAN_ELEMENT_THEORY":"SGP4","GP_ID":"206060648","MEAN_MOTION":"15.08840242","CENTER_NAME":"EARTH","ARG_OF_PERICENTER":"46.8696","REV_AT_EPOCH":"2263","ECCENTRICITY":"0.00016470","CLASSIFICATION_TYPE":"U","MEAN_ANOMALY":"313.2434","PERIAPSIS":"538.605","RA_OF_ASC_NODE":"307.6641","TLE_LINE1":"1 51146U 22005AU  22164.50495290  .00001453  00000-0  10938-3 0  9992","RCS_SIZE":"LARGE","EPOCH":"2022-06-13T12:07:07.930560","OBJECT_NAME":"STARLINK-3354","APOAPSIS":"540.884","COUNTRY_CODE":"US","ELEMENT_SET_NO":"999","TLE_LINE2":"2 51146  53.2187 307.6641 0001647  46.8696 313.2434 15.08840242 22636","OBJECT_TYPE":"PAYLOAD","REF_FRAME":"TEME","DECAY_DATE":null,"EPHEMERIS_TYPE":"0","SITE":"AFETR","MEAN_MOTION_DOT":"0.00001453","TIME_SYSTEM":"UTC","PERIOD":"95.438","LAUNCH_DATE":"2022-01-19","MEAN_MOTION_DDOT":"0.0000000000000","INCLINATION":"53.2187","OBJECT_ID":"2022-005AU","SEMIMAJOR_AXIS":"6917.880","NORAD_CAT_ID":"51146","FILE":"3494620"}];
